{
  "type": "FeatureCollection",
  "features": [
    {
      "type": "Feature",
      "properties": {
        "norad_id": 40069,
        "name": "METEOR-M 2",
        "group": "weather",
        "lat": 5.459140916206407,
        "lon": 157.84279678075757,
        "alt_km": 818.7709746993105,
        "timestamp": "2025-12-25T22:42:16.639457+00:00",
        "meta_object_name": "METEOR-M 2",
        "meta_object_id": "2014-037A",
        "meta_epoch": "2025-12-25T18:30:29.149344",
        "meta_mean_motion": 14.21391583,
        "meta_eccentricity": 0.0005669,
        "meta_inclination": 98.492,
        "meta_ra_of_asc_node": 336.8565,
        "meta_arg_of_pericenter": 169.3679,
        "meta_mean_anomaly": 190.762,
        "meta_ephemeris_type": 0,
        "meta_classification_type": "U",
        "meta_norad_cat_id": 40069,
        "meta_element_set_no": 999,
        "meta_rev_at_epoch": 59468,
        "meta_bstar": 0.00010866,
        "meta_mean_motion_dot": 1.95e-06,
        "meta_mean_motion_ddot": 0,
        "tle_line1": "1 40069U 14037A   25359.77117071  .00000195  00000+0  10866-3 0  9997",
        "tle_line2": "2 40069  98.4920 336.8565 0005669 169.3679 190.7620 14.21391583594680"
      },
      "geometry": {
        "type": "Point",
        "coordinates": [
          157.84279678075757,
          5.459140916206407
        ]
      }
    },
    {
      "type": "Feature",
      "properties": {
        "norad_id": 40267,
        "name": "HIMAWARI-8",
        "group": "weather",
        "lat": -0.006988005831384296,
        "lon": -144.0832987856591,
        "alt_km": 35786.24875013998,
        "timestamp": "2025-12-25T22:42:16.639469+00:00",
        "meta_object_name": "HIMAWARI-8",
        "meta_object_id": "2014-060A",
        "meta_epoch": "2025-12-25T15:22:38.523360",
        "meta_mean_motion": 1.00271002,
        "meta_eccentricity": 9.64e-05,
        "meta_inclination": 0.0429,
        "meta_ra_of_asc_node": 197.6202,
        "meta_arg_of_pericenter": 107.2474,
        "meta_mean_anomaly": 160.8582,
        "meta_ephemeris_type": 0,
        "meta_classification_type": "U",
        "meta_norad_cat_id": 40267,
        "meta_element_set_no": 999,
        "meta_rev_at_epoch": 4102,
        "meta_bstar": 0,
        "meta_mean_motion_dot": -2.54e-06,
        "meta_mean_motion_ddot": 0,
        "tle_line1": "1 40267U 14060A   25359.64072365 -.00000254  00000+0  00000+0 0  9997",
        "tle_line2": "2 40267   0.0429 197.6202 0000964 107.2474 160.8582  1.00271002 41027"
      },
      "geometry": {
        "type": "Point",
        "coordinates": [
          -144.0832987856591,
          -0.006988005831384296
        ]
      }
    },
    {
      "type": "Feature",
      "properties": {
        "norad_id": 40367,
        "name": "FENGYUN 2G",
        "group": "weather",
        "lat": 5.135453190400114,
        "lon": 174.55134687871902,
        "alt_km": 35780.39139357594,
        "timestamp": "2025-12-25T22:42:16.639481+00:00",
        "meta_object_name": "FENGYUN 2G",
        "meta_object_id": "2014-090A",
        "meta_epoch": "2025-12-25T18:56:24.512640",
        "meta_mean_motion": 1.00281963,
        "meta_eccentricity": 0.0001712,
        "meta_inclination": 5.1984,
        "meta_ra_of_asc_node": 74.9353,
        "meta_arg_of_pericenter": 171.7159,
        "meta_mean_anomaly": 231.2546,
        "meta_ephemeris_type": 0,
        "meta_classification_type": "U",
        "meta_norad_cat_id": 40367,
        "meta_element_set_no": 999,
        "meta_rev_at_epoch": 4026,
        "meta_bstar": 0,
        "meta_mean_motion_dot": -2.82e-06,
        "meta_mean_motion_ddot": 0,
        "tle_line1": "1 40367U 14090A   25359.78917260 -.00000282  00000+0  00000+0 0  9999",
        "tle_line2": "2 40367   5.1984  74.9353 0001712 171.7159 231.2546  1.00281963 40267"
      },
      "geometry": {
        "type": "Point",
        "coordinates": [
          174.55134687871902,
          5.135453190400114
        ]
      }
    },
    {
      "type": "Feature",
      "properties": {
        "norad_id": 40732,
        "name": "METEOSAT-11 (MSG-4)",
        "group": "weather",
        "lat": 0.6154904953160968,
        "lon": 84.42406968683807,
        "alt_km": 35787.71549319937,
        "timestamp": "2025-12-25T22:42:16.639493+00:00",
        "meta_object_name": "METEOSAT-11 (MSG-4)",
        "meta_object_id": "2015-034A",
        "meta_epoch": "2025-12-25T16:31:52.263840",
        "meta_mean_motion": 1.00271545,
        "meta_eccentricity": 7e-05,
        "meta_inclination": 2.7688,
        "meta_ra_of_asc_node": 71.966,
        "meta_arg_of_pericenter": 136.703,
        "meta_mean_anomaly": 142.9271,
        "meta_ephemeris_type": 0,
        "meta_classification_type": "U",
        "meta_norad_cat_id": 40732,
        "meta_element_set_no": 999,
        "meta_rev_at_epoch": 547,
        "meta_bstar": 0,
        "meta_mean_motion_dot": 8.2e-07,
        "meta_mean_motion_ddot": 0,
        "tle_line1": "1 40732U 15034A   25359.68879935  .00000082  00000+0  00000+0 0  9996",
        "tle_line2": "2 40732   2.7688  71.9660 0000700 136.7030 142.9271  1.00271545  5472"
      },
      "geometry": {
        "type": "Point",
        "coordinates": [
          84.42406968683807,
          0.6154904953160968
        ]
      }
    },
    {
      "type": "Feature",
      "properties": {
        "norad_id": 41105,
        "name": "ELEKTRO-L 2",
        "group": "weather",
        "lat": -1.2721842340657161,
        "lon": 60.88979032220427,
        "alt_km": 35797.68781858272,
        "timestamp": "2025-12-25T22:42:16.639505+00:00",
        "meta_object_name": "ELEKTRO-L 2",
        "meta_object_id": "2015-074A",
        "meta_epoch": "2025-12-24T23:18:12.436992",
        "meta_mean_motion": 1.0027204,
        "meta_eccentricity": 0.000354,
        "meta_inclination": 6.2545,
        "meta_ra_of_asc_node": 72.6824,
        "meta_arg_of_pericenter": 208.1447,
        "meta_mean_anomaly": 147.994,
        "meta_ephemeris_type": 0,
        "meta_classification_type": "U",
        "meta_norad_cat_id": 41105,
        "meta_element_set_no": 999,
        "meta_rev_at_epoch": 3675,
        "meta_bstar": 0,
        "meta_mean_motion_dot": -9.8e-07,
        "meta_mean_motion_ddot": 0,
        "tle_line1": "1 41105U 15074A   25358.97097728 -.00000098  00000+0  00000+0 0  9996",
        "tle_line2": "2 41105   6.2545  72.6824 0003540 208.1447 147.9940  1.00272040 36753"
      },
      "geometry": {
        "type": "Point",
        "coordinates": [
          60.88979032220427,
          -1.2721842340657161
        ]
      }
    },
    {
      "type": "Feature",
      "properties": {
        "norad_id": 41752,
        "name": "INSAT-3DR",
        "group": "weather",
        "lat": 0.12140245848527428,
        "lon": 149.11158163565406,
        "alt_km": 35818.86727920526,
        "timestamp": "2025-12-25T22:42:16.639517+00:00",
        "meta_object_name": "INSAT-3DR",
        "meta_object_id": "2016-054A",
        "meta_epoch": "2025-12-24T15:09:51.705216",
        "meta_mean_motion": 1.00271379,
        "meta_eccentricity": 0.00142635,
        "meta_inclination": 0.1198,
        "meta_ra_of_asc_node": 86.2568,
        "meta_arg_of_pericenter": 185.6475,
        "meta_mean_anomaly": 122.9543,
        "meta_ephemeris_type": 0,
        "meta_classification_type": "U",
        "meta_norad_cat_id": 41752,
        "meta_element_set_no": 999,
        "meta_rev_at_epoch": 3406,
        "meta_bstar": 0,
        "meta_mean_motion_dot": -5.6e-07,
        "meta_mean_motion_ddot": 0,
        "tle_line1": "1 41752U 16054A   25358.63184844 -.00000056  00000+0  00000+0 0  9996",
        "tle_line2": "2 41752   0.1198  86.2568 0014263 185.6475 122.9543  1.00271379 34066"
      },
      "geometry": {
        "type": "Point",
        "coordinates": [
          149.11158163565406,
          0.12140245848527428
        ]
      }
    },
    {
      "type": "Feature",
      "properties": {
        "norad_id": 41836,
        "name": "HIMAWARI-9",
        "group": "weather",
        "lat": 0.0022575552756194496,
        "lon": -143.97540449242075,
        "alt_km": 35788.48406126783,
        "timestamp": "2025-12-25T22:42:16.639529+00:00",
        "meta_object_name": "HIMAWARI-9",
        "meta_object_id": "2016-064A",
        "meta_epoch": "2025-12-25T12:54:35.530272",
        "meta_mean_motion": 1.00269178,
        "meta_eccentricity": 0.0001265,
        "meta_inclination": 0.01,
        "meta_ra_of_asc_node": 87.1528,
        "meta_arg_of_pericenter": 236.8608,
        "meta_mean_anomaly": 104.712,
        "meta_ephemeris_type": 0,
        "meta_classification_type": "U",
        "meta_norad_cat_id": 41836,
        "meta_element_set_no": 999,
        "meta_rev_at_epoch": 3346,
        "meta_bstar": 0,
        "meta_mean_motion_dot": -2.54e-06,
        "meta_mean_motion_ddot": 0,
        "tle_line1": "1 41836U 16064A   25359.53791123 -.00000254  00000+0  00000+0 0  9994",
        "tle_line2": "2 41836   0.0100  87.1528 0001265 236.8608 104.7120  1.00269178 33468"
      },
      "geometry": {
        "type": "Point",
        "coordinates": [
          -143.97540449242075,
          0.0022575552756194496
        ]
      }
    }
  ]
}